NORAD_CAT_ID,OBJECT_NAME,OBJECT_TYPE,EPOCH,MEAN_MOTION,ECCENTRICITY,INCLINATION,RA_OF_ASC_NODE,ARG_OF_PERICENTER,MEAN_ANOMALY,BSTAR,MEAN_MOTION_DOT,MEAN_MOTION_DDOT,TLE_LINE0,TLE_LINE1,TLE_LINE2,SEMIMAJOR_AXIS,PERIOD,APOGEE,PERIGEE,DECAYED
53543.0,STARLINK-4297,PAYLOAD,2023-03-15 20:42:13,15.08833681,0.0001135,53.2166,276.6087,101.3951,258.7169,0.00021509,3.136e-05,0.0,0 STARLINK-4297,1 53543U 22101S   23074.86265161  .00003136  00000-0  21509-3 0  9990,2 53543  53.2166 276.6087 0001135 101.3951 258.7169 15.08833681 31770,6917.9,95.438,540.55,538.98,0.0
53543.0,STARLINK-4297,PAYLOAD,2023-03-16 12:36:06,15.08826878,9.94e-05,53.2193,273.635,104.6263,255.4839,-0.00012677,-2.304e-05,0.0,0 STARLINK-4297,1 53543U 22101S   23075.52507199 -.00002304  00000-0 -12677-3 0  9998,2 53543  53.2193 273.6350 0000994 104.6263 255.4839 15.08826878 31873,6917.92,95.438,540.473,539.098,0.0
53543.0,STARLINK-4297,PAYLOAD,2023-03-16 14:11:29,15.08835563,0.0001348,53.2185,273.3389,90.1099,270.0048,-0.00017723,-3.107e-05,0.0,0 STARLINK-4297,1 53543U 22101S   23075.59130975 -.00003107  00000-0 -17723-3 0  9998,2 53543  53.2185 273.3389 0001348  90.1099 270.0048 15.08835563 32577,6917.894,95.438,540.691,538.826,0.0
53543.0,STARLINK-4297,PAYLOAD,2023-03-16 20:33:01,15.08836855,0.0001359,53.2182,272.1493,91.565,268.5497,-0.00015298,-2.722e-05,0.0,0 STARLINK-4297,1 53543U 22101S   23075.85626845 -.00002722  00000-0 -15298-3 0  9990,2 53543  53.2182 272.1493 0001359  91.5650 268.5497 15.08836855 31920,6917.89,95.438,540.695,538.815,0.0
53543.0,STARLINK-4297,PAYLOAD,2023-03-17 12:26:52,15.08832788,0.0001615,53.2173,269.1757,94.0489,266.0688,-1.6513e-05,-5.51e-06,0.0,0 STARLINK-4297,1 53543U 22101S   23076.51866869 -.00000551  00000-0 -16513-4 0  9996,2 53543  53.2173 269.1757 0001615  94.0489 266.0688 15.08832788 32716,6917.902,95.438,540.885,538.65,0.0
53543.0,STARLINK-4297,PAYLOAD,2023-03-17 18:48:25,15.08835954,0.0001244,53.2179,267.9856,86.3738,273.7396,-6.59e-05,-1.336e-05,0.0,0 STARLINK-4297,1 53543U 22101S   23076.78362981 -.00001336  00000-0 -65900-4 0  9997,2 53543  53.2179 267.9856 0001244  86.3738 273.7396 15.08835954 32750,6917.893,95.438,540.618,538.897,0.0
53543.0,STARLINK-4297,PAYLOAD,2023-03-17 21:59:11,15.08843064,0.0001371,53.2177,267.391,93.1166,266.9983,2.4243e-06,-2.49e-06,0.0,0 STARLINK-4297,1 53543U 22101S   23076.91610201 -.00000249  00000-0  24243-5 0  9990,2 53543  53.2177 267.3910 0001371  93.1166 266.9983 15.08843064 32088,6917.871,95.437,540.684,538.788,0.0
53543.0,STARLINK-4297,PAYLOAD,2023-03-18 21:49:57,15.0884647,0.0001335,53.2165,262.9298,93.7147,266.3998,0.00015189,2.131e-05,0.0,0 STARLINK-4297,1 53543U 22101S   23077.90969311  .00002131  00000-0  15189-3 0  9997,2 53543  53.2165 262.9298 0001335  93.7147 266.3998 15.08846470 32927,6917.861,95.437,540.649,538.802,0.0
53543.0,STARLINK-4297,PAYLOAD,2023-03-19 05:46:52,15.08848359,0.0001341,53.2163,261.4433,92.7915,267.3231,0.00013668,1.888e-05,0.0,0 STARLINK-4297,1 53543U 22101S   23078.24089071  .00001888  00000-0  13668-3 0  9999,2 53543  53.2163 261.4433 0001341  92.7915 267.3231 15.08848359 32973,6917.855,95.437,540.648,538.792,0.0
53543.0,STARLINK-4297,PAYLOAD,2023-03-19 18:29:59,15.088373,0.0001134,53.2174,259.0643,84.0026,276.1096,4.8647e-05,4.86e-06,0.0,0 STARLINK-4297,1 53543U 22101S   23078.77082217  .00000486  00000-0  48647-4 0  9991,2 53543  53.2174 259.0643 0001134  84.0026 276.1096 15.08837300 32362,6917.889,95.438,540.538,538.969,0.0
53543.0,STARLINK-4297,PAYLOAD,2023-03-20 11:59:13,15.08845711,0.0001103,53.2185,255.7942,73.7106,286.4007,-0.00011251,-2.078e-05,0.0,0 STARLINK-4297,1 53543U 22101S   23079.49946219 -.00002078  00000-0 -11251-3 0  9993,2 53543  53.2185 255.7942 0001103  73.7106 286.4007 15.08845711 33169,6917.863,95.437,540.491,538.965,0.0
53543.0,STARLINK-4297,PAYLOAD,2023-03-20 18:20:45,15.08849713,0.0001245,53.2175,254.6038,77.507,282.6061,-7.6266e-05,-1.502e-05,0.0,0 STARLINK-4297,1 53543U 22101S   23079.76441723 -.00001502  00000-0 -76266-4 0  9992,2 53543  53.2175 254.6038 0001245  77.5070 282.6061 15.08849713 32513,6917.851,95.437,540.577,538.854,0.0
53543.0,STARLINK-4297,PAYLOAD,2023-03-21 11:50:00,15.08835958,0.0001213,53.2181,251.3332,73.4146,286.698,8.394e-06,-1.54e-06,0.0,0 STARLINK-4297,1 53543U 22101S   23080.49306162 -.00000154  00000-0  83940-5 0  9990,2 53543  53.2181 251.3332 0001213  73.4146 286.6980 15.08835958 32627,6917.893,95.438,540.597,538.919,0.0
53543.0,STARLINK-4297,PAYLOAD,2023-03-21 18:11:32,15.08844168,0.0001199,53.2181,250.1439,73.3374,286.775,7.4476e-05,8.98e-06,0.0,0 STARLINK-4297,1 53543U 22101S   23080.75801403  .00000898  00000-0  74476-4 0  9994,2 53543  53.2181 250.1439 0001199  73.3374 286.7750 15.08844168 32660,6917.868,95.437,540.562,538.903,0.0
53543.0,STARLINK-4297,PAYLOAD,2023-03-22 11:40:47,15.08833178,0.0001282,53.2171,246.8755,82.2348,277.879,-3.8968e-05,-9.08e-06,0.0,0 STARLINK-4297,1 53543U 22101S   23081.48666611 -.00000908  00000-0 -38968-4 0  9995,2 53543  53.2171 246.8755 0001282  82.2348 277.8790 15.08833178 32771,6917.901,95.438,540.653,538.879,0.0
53543.0,STARLINK-4297,PAYLOAD,2023-03-22 18:02:19,15.08840688,0.0001376,53.2191,245.6883,97.424,262.6909,1.7748e-05,-5e-08,0.0,0 STARLINK-4297,1 53543U 22101S   23081.75161940 -.00000005  00000-0  17748-4 0  9990,2 53543  53.2191 245.6883 0001376  97.4240 262.6909 15.08840688 32818,6917.878,95.438,540.695,538.791,0.0
53543.0,STARLINK-4297,PAYLOAD,2023-03-22 18:02:20,15.08839682,0.0001364,53.2191,245.688,91.4717,268.6432,2.6098e-05,1.27e-06,0.0,0 STARLINK-4297,1 53543U 22101S   23081.75162048  .00000127  00000-0  26098-4 0  9992,2 53543  53.2191 245.6880 0001364  91.4717 268.6432 15.08839682 33501,6917.881,95.438,540.69,538.803,0.0
53543.0,STARLINK-4297,PAYLOAD,2023-03-23 03:34:39,15.08825987,0.000118,53.2175,243.8998,74.0631,286.0491,-7.4244e-05,-1.469e-05,0.0,0 STARLINK-4297,1 53543U 22101S   23082.14907354 -.00001469  00000-0 -74244-4 0  9991,2 53543  53.2175 243.8998 0001180  74.0631 286.0491 15.08825987 32872,6917.923,95.438,540.605,538.972,0.0
53543.0,STARLINK-4297,PAYLOAD,2023-03-23 14:42:23,15.08813938,9.88e-05,53.2165,241.821,88.6341,271.4764,-0.00022999,-3.943e-05,0.0,0 STARLINK-4297,1 53543U 22101S   23082.61277175 -.00003943  00000-0 -22999-3 0  9992,2 53543  53.2165 241.8210 0000988  88.6341 271.4764 15.08813938 33639,6917.96,95.439,540.509,539.142,0.0
53543.0,STARLINK-4297,PAYLOAD,2023-03-23 17:53:09,15.08823867,0.0001332,53.2169,241.2262,64.3198,295.7931,-0.00013752,-2.475e-05,0.0,0 STARLINK-4297,1 53543U 22101S   23082.74524602 -.00002475  00000-0 -13752-3 0  9992,2 53543  53.2169 241.2262 0001332  64.3198 295.7931 15.08823867 32961,6917.93,95.439,540.716,538.873,0.0
53543.0,STARLINK-4297,PAYLOAD,2023-03-24 03:25:26,15.08835225,0.0001221,53.2168,239.4408,82.2664,277.8467,5.7634e-05,6.29e-06,0.0,0 STARLINK-4297,1 53543U 22101S   23083.14267300  .00000629  00000-0  57634-4 0  9991,2 53543  53.2168 239.4408 0001221  82.2664 277.8467 15.08835225 33029,6917.895,95.438,540.605,538.915,0.0
53543.0,STARLINK-4297,PAYLOAD,2023-03-24 14:33:07,15.08852796,0.0001123,53.2185,237.3624,93.1755,266.9366,0.00018358,2.636e-05,0.0,0 STARLINK-4297,1 53543U 22101S   23083.60633616  .00002636  00000-0  18358-3 0  9998,2 53543  53.2185 237.3624 0001123  93.1755 266.9366 15.08852796 33094,6917.841,95.437,540.483,538.929,0.0
53543.0,STARLINK-4297,PAYLOAD,2023-03-24 16:08:30,15.08857496,0.0001262,53.218,237.063,85.0736,275.04,0.00017281,2.465e-05,0.0,0 STARLINK-4297,1 53543U 22101S   23083.67257361  .00002465  00000-0  17281-3 0  9998,2 53543  53.2180 237.0630 0001262  85.0736 275.0400 15.08857496 33795,6917.827,95.436,540.565,538.819,0.0
53543.0,STARLINK-4297,PAYLOAD,2023-03-25 09:37:46,15.08823873,0.0001127,53.2148,233.7933,59.0199,301.0903,0.00017583,2.51e-05,0.0,0 STARLINK-4297,1 53543U 22101S   23084.40123614  .00002510  00000-0  17583-3 0  9999,2 53543  53.2148 233.7933 0001127  59.0199 301.0903 15.08823873 33219,6917.93,95.439,540.574,539.015,0.0
53543.0,STARLINK-4297,PAYLOAD,2023-03-25 17:34:42,15.08826761,0.0001059,53.2178,232.3013,82.3489,277.7624,4.1766e-05,3.77e-06,0.0,0 STARLINK-4297,1 53543U 22101S   23084.73244183  .00000377  00000-0  41766-4 0  9990,2 53543  53.2178 232.3013 0001059  82.3489 277.7624 15.08826761 33950,6917.921,95.438,540.518,539.053,0.0
53543.0,STARLINK-4297,PAYLOAD,2023-03-26 17:25:28,15.08865304,9.04e-05,53.2177,227.8407,96.6581,263.4514,-9.2632e-05,-1.763e-05,0.0,0 STARLINK-4297,1 53543U 22101S   23085.72601998 -.00001763  00000-0 -92632-4 0  9991,2 53543  53.2177 227.8407 0000904  96.6581 263.4514 15.08865304 33411,6917.803,95.436,540.293,539.043,0.0
53543.0,STARLINK-4297,PAYLOAD,2023-03-26 20:36:13,15.08870281,9.44e-05,53.2182,227.2458,97.7989,262.3111,-3.0926e-05,-7.8e-06,0.0,0 STARLINK-4297,1 53543U 22101S   23085.85849387 -.00000780  00000-0 -30926-4 0  9997,2 53543  53.2182 227.2458 0000944  97.7989 262.3111 15.08870281 34125,6917.788,95.436,540.306,539.0,0.0
53543.0,STARLINK-4297,PAYLOAD,2023-03-27 12:30:06,15.08831686,0.0001047,53.2176,224.2766,62.093,298.0168,0.00011559,1.552e-05,0.0,0 STARLINK-4297,1 53543U 22101S   23086.52091213  .00001552  00000-0  11559-3 0  9995,2 53543  53.2176 224.2766 0001047  62.0930 298.0168 15.08831686 33531,6917.906,95.438,540.495,539.046,0.0
53543.0,STARLINK-4297,PAYLOAD,2023-03-27 14:05:29,15.08834614,0.0001194,53.2185,223.9785,61.4969,298.6143,0.0001164,1.565e-05,0.0,0 STARLINK-4297,1 53543U 22101S   23086.58715092  .00001565  00000-0  11640-3 0  9994,2 53543  53.2185 223.9785 0001194  61.4969 298.6143 15.08834614 34237,6917.897,95.438,540.588,538.936,0.0
53543.0,STARLINK-4297,PAYLOAD,2023-03-27 15:40:51,15.08849931,0.0001197,53.2189,223.6782,108.0544,252.0578,0.00016844,2.395e-05,0.0,0 STARLINK-4297,1 53543U 22101S   23086.65337896  .00002395  00000-0  16844-3 0  9997,2 53543  53.2189 223.6782 0001197 108.0544 252.0578 15.08849931 33553,6917.85,95.437,540.543,538.887,0.0
